{
  "norad_id": 63676,
  "name": "STARLINK-11661 [DTC]",
  "history": [
    {
      "epoch": "2026-03-28T16:37:28.651008",
      "apogee_km": 356.57516643573854,
      "perigee_km": 355.8788331981568,
      "latitude_deg": -38.778195481262465,
      "longitude_deg": -105.90149888000451,
      "semi_major_axis_km": 6734.363999816947,
      "eccentricity": 5.17e-05,
      "inclination_deg": 42.9999,
      "raan_deg": 163.5876,
      "arg_perigee_deg": 284.6785,
      "mean_anomaly_deg": 75.4025,
      "mean_motion_rev_day": 15.70933792
    }
  ]
}