{"fetched_at":"2026-03-29T16:36:15Z","count":15609,"tles":[{"name":"STARLINK-11661 [DTC]","line1":"1 63676U 25085N   26087.69269272  .00282804  00000+0  21249-2 0  9997","line2":"2 63676  42.9999 163.5876 0000517 284.6785  75.4025 15.70933792 53884","category":"Starlink"}]}